start=new Date('2023-02-07T00:00:00.000Z').valueOf();
sats=[{"TLE_LINE2":"2 46354  53.0551  37.0823 0001404  98.1547 261.9602 15.06405071134406","REV_AT_EPOCH":"13440","ARG_OF_PERICENTER":"98.1547","TIME_SYSTEM":"UTC","CENTER_NAME":"EARTH","LAUNCH_DATE":"2020-09-03","MEAN_MOTION_DDOT":"0.0000000000000","GP_ID":"224606584","ECCENTRICITY":"0.00014040","MEAN_MOTION":"15.06405071","NORAD_CAT_ID":"46354","OBJECT_ID":"2020-062AF","TLE_LINE1":"1 46354U 20062AF  23037.43137444  .00000857  00000-0  76395-4 0  9991","OBJECT_NAME":"STARLINK-1657","RA_OF_ASC_NODE":"37.0823","MEAN_ELEMENT_THEORY":"SGP4","INCLINATION":"53.0551","EPHEMERIS_TYPE":"0","REF_FRAME":"TEME","APOAPSIS":"548.170","RCS_SIZE":"LARGE","EPOCH":"2023-02-06T10:21:10.751616","CLASSIFICATION_TYPE":"U","OBJECT_TYPE":"PAYLOAD","ELEMENT_SET_NO":"999","SITE":"AFETR","SEMIMAJOR_AXIS":"6925.333","FILE":"3775254","MEAN_MOTION_DOT":"0.00000857","DECAY_DATE":null,"COUNTRY_CODE":"US","PERIOD":"95.592","BSTAR":"0.00007639500000","MEAN_ANOMALY":"261.9602","PERIAPSIS":"546.226"},{"LAUNCH_DATE":"2020-09-03","MEAN_MOTION_DDOT":"0.0000000000000","CENTER_NAME":"EARTH","TIME_SYSTEM":"UTC","MEAN_MOTION":"15.06417125","NORAD_CAT_ID":"46355","GP_ID":"224615175","ECCENTRICITY":"0.00014460","TLE_LINE1":"1 46355U 20062AG  23037.47191633  .00005045  00000-0  35716-3 0  9991","OBJECT_ID":"2020-062AG","OBJECT_NAME":"STARLINK-1661","TLE_LINE2":"2 46355  53.0539  36.9010 0001446  92.1981 267.9174 15.06417125134594","REV_AT_EPOCH":"13459","ARG_OF_PERICENTER":"92.1981","FILE":"3775476","ELEMENT_SET_NO":"999","SITE":"AFETR","SEMIMAJOR_AXIS":"6925.296","DECAY_DATE":null,"MEAN_MOTION_DOT":"0.00005045","COUNTRY_CODE":"US","PERIOD":"95.591","MEAN_ANOMALY":"267.9174","PERIAPSIS":"546.160","BSTAR":"0.00035716000000","INCLINATION":"53.0539","RA_OF_ASC_NODE":"36.9010","MEAN_ELEMENT_THEORY":"SGP4","REF_FRAME":"TEME","APOAPSIS":"548.162","EPHEMERIS_TYPE":"0","CLASSIFICATION_TYPE":"U","EPOCH":"2023-02-06T11:19:33.570912","RCS_SIZE":"LARGE","OBJECT_TYPE":"PAYLOAD"},{"PERIOD":"95.592","COUNTRY_CODE":"US","BSTAR":"0.00012426000000","PERIAPSIS":"546.270","MEAN_ANOMALY":"261.9855","SITE":"AFETR","SEMIMAJOR_AXIS":"6925.321","ELEMENT_SET_NO":"999","FILE":"3775416","MEAN_MOTION_DOT":"0.00001570","DECAY_DATE":null,"RCS_SIZE":"LARGE","EPOCH":"2023-02-06T11:34:07.148352","CLASSIFICATION_TYPE":"U","OBJECT_TYPE":"PAYLOAD","MEAN_ELEMENT_THEORY":"SGP4","RA_OF_ASC_NODE":"36.8487","INCLINATION":"53.0532","EPHEMERIS_TYPE":"0","APOAPSIS":"548.102","REF_FRAME":"TEME","OBJECT_ID":"2020-062AH","TLE_LINE1":"1 46356U 20062AH  23037.48202718  .00001570  00000-0  12426-3 0  9992","OBJECT_NAME":"STARLINK-1665","TIME_SYSTEM":"UTC","CENTER_NAME":"EARTH","MEAN_MOTION_DDOT":"0.0000000000000","LAUNCH_DATE":"2020-09-03","ECCENTRICITY":"0.00013230","GP_ID":"224615308","NORAD_CAT_ID":"46356","MEAN_MOTION":"15.06409028","REV_AT_EPOCH":"13459","ARG_OF_PERICENTER":"98.1284","TLE_LINE2":"2 46356  53.0532  36.8487 0001323  98.1284 261.9855 15.06409028134594"},{"TLE_LINE2":"2 46357  53.0547  15.0640 0001313  87.4354 272.6785 15.06404443134754","REV_AT_EPOCH":"13475","ARG_OF_PERICENTER":"87.4354","LAUNCH_DATE":"2020-09-03","MEAN_MOTION_DDOT":"0.0000000000000","CENTER_NAME":"EARTH","TIME_SYSTEM":"UTC","MEAN_MOTION":"15.06404443","NORAD_CAT_ID":"46357","GP_ID":"224648664","ECCENTRICITY":"0.00013130","TLE_LINE1":"1 46357U 20062AJ  23037.87922020  .00003902  00000-0  28070-3 0  9994","OBJECT_ID":"2020-062AJ","OBJECT_NAME":"STARLINK-1666","INCLINATION":"53.0547","RA_OF_ASC_NODE":"15.0640","MEAN_ELEMENT_THEORY":"SGP4","REF_FRAME":"TEME","APOAPSIS":"548.109","EPHEMERIS_TYPE":"0","CLASSIFICATION_TYPE":"U","EPOCH":"2023-02-06T21:06:04.625280","RCS_SIZE":"LARGE","OBJECT_TYPE":"PAYLOAD","FILE":"3776034","ELEMENT_SET_NO":"999","SITE":"AFETR","SEMIMAJOR_AXIS":"6925.335","DECAY_DATE":null,"MEAN_MOTION_DOT":"0.00003902","COUNTRY_CODE":"US","PERIOD":"95.592","MEAN_ANOMALY":"272.6785","PERIAPSIS":"546.291","BSTAR":"0.00028070000000"},{"REF_FRAME":"TEME","APOAPSIS":"548.148","EPHEMERIS_TYPE":"0","INCLINATION":"53.0526","MEAN_ELEMENT_THEORY":"SGP4","RA_OF_ASC_NODE":"35.7608","OBJECT_TYPE":"PAYLOAD","EPOCH":"2023-02-06T17:25:48.096768","CLASSIFICATION_TYPE":"U","RCS_SIZE":"LARGE","DECAY_DATE":null,"MEAN_MOTION_DOT":"0.00002520","FILE":"3776034","SITE":"AFETR","SEMIMAJOR_AXIS":"6925.328","ELEMENT_SET_NO":"999","PERIAPSIS":"546.239","MEAN_ANOMALY":"266.7877","BSTAR":"0.00018799000000","PERIOD":"95.592","COUNTRY_CODE":"US","TLE_LINE2":"2 46358  53.0526  35.7608 0001378  93.3270 266.7877 15.06406592134459","ARG_OF_PERICENTER":"93.3270","REV_AT_EPOCH":"13445","NORAD_CAT_ID":"46358","MEAN_MOTION":"15.06406592","GP_ID":"224648914","ECCENTRICITY":"0.00013780","MEAN_MOTION_DDOT":"0.0000000000000","LAUNCH_DATE":"2020-09-03","CENTER_NAME":"EARTH","TIME_SYSTEM":"UTC","OBJECT_NAME":"STARLINK-1690","TLE_LINE1":"1 46358U 20062AK  23037.72625112  .00002520  00000-0  18799-3 0  9993","OBJECT_ID":"2020-062AK"},{"RA_OF_ASC_NODE":"349.9544","MEAN_ELEMENT_THEORY":"SGP4","INCLINATION":"53.0556","EPHEMERIS_TYPE":"0","APOAPSIS":"548.123","REF_FRAME":"TEME","RCS_SIZE":"LARGE","CLASSIFICATION_TYPE":"U","EPOCH":"2023-02-06T21:43:53.506560","OBJECT_TYPE":"PAYLOAD","ELEMENT_SET_NO":"999","SITE":"AFETR","SEMIMAJOR_AXIS":"6925.345","FILE":"3776034","MEAN_MOTION_DOT":"0.00001980","DECAY_DATE":null,"COUNTRY_CODE":"US","PERIOD":"95.592","BSTAR":"0.00015175000000","MEAN_ANOMALY":"265.2464","PERIAPSIS":"546.297","TLE_LINE2":"2 46359  53.0556 349.9544 0001319  94.8676 265.2464 15.06401168135106","REV_AT_EPOCH":"13510","ARG_OF_PERICENTER":"94.8676","TIME_SYSTEM":"UTC","CENTER_NAME":"EARTH","MEAN_MOTION_DDOT":"0.0000000000000","LAUNCH_DATE":"2020-09-03","GP_ID":"224647664","ECCENTRICITY":"0.00013190","MEAN_MOTION":"15.06401168","NORAD_CAT_ID":"46359","OBJECT_ID":"2020-062AL","TLE_LINE1":"1 46359U 20062AL  23037.90548040  .00001980  00000-0  15175-3 0  9992","OBJECT_NAME":"STARLINK-1707"},{"EPHEMERIS_TYPE":"0","REF_FRAME":"TEME","APOAPSIS":"548.328","MEAN_ELEMENT_THEORY":"SGP4","RA_OF_ASC_NODE":"350.1521","INCLINATION":"53.0542","OBJECT_TYPE":"PAYLOAD","RCS_SIZE":"LARGE","CLASSIFICATION_TYPE":"U","EPOCH":"2023-02-06T20:40:12.119232","MEAN_MOTION_DOT":"0.00003919","DECAY_DATE":null,"SEMIMAJOR_AXIS":"6925.332","SITE":"AFETR","ELEMENT_SET_NO":"999","FILE":"3776034","BSTAR":"0.00028179000000","PERIAPSIS":"546.065","MEAN_ANOMALY":"270.3183","PERIOD":"95.592","COUNTRY_CODE":"US","TLE_LINE2":"2 46360  53.0542 350.1521 0001634  89.7993 270.3183 15.06405537135106","ARG_OF_PERICENTER":"89.7993","REV_AT_EPOCH":"13510","ECCENTRICITY":"0.00016340","GP_ID":"224647913","NORAD_CAT_ID":"46360","MEAN_MOTION":"15.06405537","TIME_SYSTEM":"UTC","CENTER_NAME":"EARTH","MEAN_MOTION_DDOT":"0.0000000000000","LAUNCH_DATE":"2020-09-03","OBJECT_NAME":"STARLINK-1713","OBJECT_ID":"2020-062AM","TLE_LINE1":"1 46360U 20062AM  23037.86125138  .00003919  00000-0  28179-3 0  9990"},{"ARG_OF_PERICENTER":"94.3466","REV_AT_EPOCH":"13502","TLE_LINE2":"2 46361  53.0564 352.3592 0001339  94.3466 265.7676 15.06418537135022","OBJECT_NAME":"STARLINK-1722","OBJECT_ID":"2020-062AN","TLE_LINE1":"1 46361U 20062AN  23037.36638781  .00015261  00000-0  10407-2 0  9996","GP_ID":"224605834","ECCENTRICITY":"0.00013390","MEAN_MOTION":"15.06418537","NORAD_CAT_ID":"46361","CENTER_NAME":"EARTH","TIME_SYSTEM":"UTC","LAUNCH_DATE":"2020-09-03","MEAN_MOTION_DDOT":"0.0000000000000","OBJECT_TYPE":"PAYLOAD","RCS_SIZE":"LARGE","EPOCH":"2023-02-06T08:47:35.906784","CLASSIFICATION_TYPE":"U","EPHEMERIS_TYPE":"0","REF_FRAME":"TEME","APOAPSIS":"548.084","RA_OF_ASC_NODE":"352.3592","MEAN_ELEMENT_THEORY":"SGP4","INCLINATION":"53.0564","BSTAR":"0.00104070000000","MEAN_ANOMALY":"265.7676","PERIAPSIS":"546.229","COUNTRY_CODE":"US","PERIOD":"95.591","MEAN_MOTION_DOT":"0.00015261","DECAY_DATE":null,"SEMIMAJOR_AXIS":"6925.292","SITE":"AFETR","ELEMENT_SET_NO":"999","FILE":"3775254"},{"GP_ID":"224649415","ECCENTRICITY":"0.00014310","NORAD_CAT_ID":"46362","MEAN_MOTION":"15.06405364","TIME_SYSTEM":"UTC","CENTER_NAME":"EARTH","MEAN_MOTION_DDOT":"0.0000000000000","LAUNCH_DATE":"2020-09-03","OBJECT_NAME":"STARLINK-1726","OBJECT_ID":"2020-062AP","TLE_LINE1":"1 46362U 20062AP  23037.87599435  .00002695  00000-0  19969-3 0  9995","TLE_LINE2":"2 46362  53.0538 350.0878 0001431  96.6971 263.4181 15.06405364135104","ARG_OF_PERICENTER":"96.6971","REV_AT_EPOCH":"13510","MEAN_MOTION_DOT":"0.00002695","DECAY_DATE":null,"ELEMENT_SET_NO":"999","SITE":"AFETR","SEMIMAJOR_AXIS":"6925.332","FILE":"3776034","BSTAR":"0.00019969000000","PERIAPSIS":"546.206","MEAN_ANOMALY":"263.4181","PERIOD":"95.592","COUNTRY_CODE":"US","EPHEMERIS_TYPE":"0","APOAPSIS":"548.188","REF_FRAME":"TEME","MEAN_ELEMENT_THEORY":"SGP4","RA_OF_ASC_NODE":"350.0878","INCLINATION":"53.0538","OBJECT_TYPE":"PAYLOAD","RCS_SIZE":"LARGE","CLASSIFICATION_TYPE":"U","EPOCH":"2023-02-06T21:01:25.911840"},{"REF_FRAME":"TEME","APOAPSIS":"548.170","EPHEMERIS_TYPE":"0","INCLINATION":"53.0557","MEAN_ELEMENT_THEORY":"SGP4","RA_OF_ASC_NODE":"350.1032","OBJECT_TYPE":"PAYLOAD","CLASSIFICATION_TYPE":"U","EPOCH":"2023-02-06T20:49:27.470784","RCS_SIZE":"LARGE","DECAY_DATE":null,"MEAN_MOTION_DOT":"0.00004927","FILE":"3776034","SEMIMAJOR_AXIS":"6925.334","SITE":"AFETR","ELEMENT_SET_NO":"999","PERIAPSIS":"546.228","MEAN_ANOMALY":"264.4255","BSTAR":"0.00034936000000","PERIOD":"95.592","COUNTRY_CODE":"US","TLE_LINE2":"2 46363  53.0557 350.1032 0001402  95.6894 264.4255 15.06404678135100","ARG_OF_PERICENTER":"95.6894","REV_AT_EPOCH":"13510","NORAD_CAT_ID":"46363","MEAN_MOTION":"15.06404678","GP_ID":"224648164","ECCENTRICITY":"0.00014020","MEAN_MOTION_DDOT":"0.0000000000000","LAUNCH_DATE":"2020-09-03","TIME_SYSTEM":"UTC","CENTER_NAME":"EARTH","OBJECT_NAME":"STARLINK-1739","TLE_LINE1":"1 46363U 20062AQ  23037.86767906  .00004927  00000-0  34936-3 0  9996","OBJECT_ID":"2020-062AQ"}];
